332P-J/Ikeya-Murakami,e,9.4296,3.6729,152.7712,3.115165,0.1792596,0.49429435,359.8613,03/17.0/2016,2000,g 20.5,2.0
# From MPEC 2020-L06
333P/LINEAR,e,131.9951,115.6427,25.9855,4.220684,0.1136658,0.73658299,257.9127,06/15.0/2022,2000,g 15.0,4.0
# From MPC115888
334P/NEAT,e,20.4057,90.6164,90.1168,6.837946,0.0551208,0.35065799,101.2203,06/15.0/2022,2000,g 10.5,4.0
# From MPEC 2021-U31
335P/Gibbs,e,7.2934,330.8468,162.3101,3.577505,0.1456578,0.54609706,351.5498,06/15.0/2022,2000,g 17.0,4.0
# From MPC105244
336P/McNaught,e,17.8299,298.2533,308.7360,5.034959,0.0872389,0.44428801,171.0212,06/15.0/2022,2000,g 13.5,4.0
# From MPEC 2022-L66
337P/WISE,e,15.3712,106.0608,161.0338,3.285624,0.1654921,0.49657640,357.3254,06/15.0/2022,2000,g 17.0,4.0
# From MPEC 2022-K19
338P/McNaught,e,25.3862,9.7991,4.4513,3.895032,0.1282146,0.41197953,260.0214,06/15.0/2022,2000,g 12.0,4.0
# From MPC101101
339P/Gibbs,e,5.7332,172.7229,27.4844,3.698553,0.1385659,0.63548491,298.7516,06/15.0/2022,2000,g 17.0,4.0
# From MPC133426
340P/Boattini,e,2.0783,291.6866,35.9526,4.250445,0.1124741,0.28085956,228.3869,06/15.0/2022,2000,g 14.3,4.0
# From MPEC 2022-K19
341P/Gibbs,e,3.7971,29.9685,312.2303,4.291566,0.1108614,0.41575649,244.4823,06/15.0/2022,2000,g 12.5,4.0
# From MPC101101
342P/SOHO,e,11.6663,27.7062,73.2646,3.041794,0.1857844,0.98276324,0.0000,10/19.2919/2021,2000,g  9.0,4.0
# From MPEC 2022-K19
343P/NEAT-LONEOS,e,5.5882,257.1439,137.4333,5.458496,0.0772849,0.58491178,151.6331,06/15.0/2022,2000,g 14.0,4.0
# From MPC109148
344P/Read,e,3.4932,273.1380,140.4049,4.862631,0.0919173,0.42279686,188.4854,06/15.0/2022,2000,g 13.0,4.0
# From MPEC 2022-K19
345P/LINEAR,e,2.7275,154.5152,196.4974,4.036155,0.1215492,0.22146720,261.9402,06/15.0/2022,2000,g 12.0,4.0
# From MPEC 2022-K19
346P/Catalina,e,22.1956,102.4565,335.9530,4.474167,0.1041444,0.50290294,202.8257,06/15.0/2022,2000,g 14.0,4.0
# From MPEC 2022-K19
347P/PANSTARRS,e,11.7532,261.0207,98.4085,3.604597,0.1440187,0.38607306,302.3866,06/15.0/2022,2000,g 15.0,4.0
# From MPEC 2022-ED3
348P/PANSTARRS,e,17.7397,312.9420,135.6639,3.150866,0.1762216,0.30690138,21.5819,06/15.0/2022,2000,g 14.0,4.0
# From MPEC 2022-K19
349P/Lemmon,e,5.4907,331.7484,255.9620,3.575087,0.1458056,0.29851182,256.0969,06/15.0/2022,2000,g 14.0,4.0
# From MPC111775
350P/McNaught,e,7.3618,65.2991,139.7396,4.086531,0.1193087,0.09273874,196.2749,06/15.0/2022,2000,g 14.0,4.0
# From MPC105244
351P/Wiegert-PANSTARRS,e,12.7819,283.4359,352.6868,4.438521,0.1054014,0.29536869,252.9715,06/15.0/2022,2000,g 12.5,4.0
# From MPC110086
352P/Skiff,e,21.0119,28.0165,309.3011,6.642574,0.0575704,0.61808825,104.6653,06/15.0/2022,2000,g 11.5,4.0
# From MPEC 2020-AA5
353P/McNaught,e,28.4165,121.5447,230.4366,4.170777,0.1157121,0.47038768,189.1899,06/15.0/2022,2000,g 14.5,4.0
# From MPC105545
354P/LINEAR,e,5.2552,320.1308,132.8236,2.289795,0.2844521,0.12552227,221.7183,06/15.0/2022,2000,g 15.5,4.0
# From MPEC 2020-AA5
355P/LINEAR-NEAT,e,11.0450,51.4303,336.2849,3.470384,0.1524537,0.50770870,259.9086,06/15.0/2022,2000,g 15.5,2.0
# From MPEC 2022-F14
356P/WISE,e,9.6382,160.7990,226.0114,4.157799,0.1162543,0.35566040,190.5553,06/15.0/2022,2000,g 14.0,4.0
# From MPC114609
357P/Hill,e,6.3148,44.5591,1.3888,4.458692,0.1046870,0.43546730,154.6237,06/15.0/2022,2000,g 15.5,4.0
# From MPEC 2020-HN5
358P/PANSTARRS,e,11.0600,85.7023,299.7674,3.146697,0.1765720,0.23885348,269.2068,06/15.0/2022,2000,g 18.0,4.0
# From MPC110086
359P/LONEOS,e,10.2672,149.7555,200.2284,4.639862,0.0986158,0.32422998,173.2805,06/15.0/2022,2000,g 13.5,4.0
# From MPC108599
360P/WISE,e,24.1120,2.1922,354.1699,3.700820,0.1384386,0.49925010,243.5044,06/15.0/2022,2000,g 19.5,6.0
# From MPC114609
361P/Spacewatch,e,13.9005,203.2545,219.0049,4.936348,0.0898660,0.43868938,129.6817,06/15.0/2022,2000,g 12.0,4.0
# From MPEC 2017-V13
362P/,e,15.5565,192.5483,53.6583,3.970762,0.1245642,0.27891795,264.4977,06/15.0/2022,2000,g 12.9,2.0
# From MPC114609
363P/Lemmon,e,5.4094,146.8847,341.0615,3.563308,0.1465291,0.52091523,230.7726,06/15.0/2022,2000,g 17.5,4.0
# From MPEC 2022-K19
364P/PANSTARRS,e,12.1353,46.1632,212.0180,2.879844,0.2016743,0.72187989,292.8424,06/15.0/2022,2000,g 17.0,2.0
# From MPC111775
365P/PANSTARRS,e,9.8274,86.5229,67.3305,3.164550,0.1750798,0.58101333,275.7382,06/15.0/2022,2000,g 17.0,4.0
# From MPC114610
366P/Spacewatch,e,8.8575,70.7628,153.0803,3.496470,0.1507507,0.34803666,215.0382,06/15.0/2022,2000,g 15.0,4.0
# From MPC112395
367P/Catalina,e,8.4603,58.7211,172.8478,3.506944,0.1500758,0.27985107,218.5780,06/15.0/2022,2000,g 17.5,2.0
# From MPC114610
368P/NEAT,e,15.4810,257.8854,118.8622,5.528410,0.0758235,0.62671741,103.7803,06/15.0/2022,2000,g 14.0,4.0
# From MPC114610
369P/Hill,e,10.3209,47.2904,13.1541,4.382417,0.1074320,0.55504989,143.7647,06/15.0/2022,2000,g 15.0,4.0
# From MPEC 2021-F20
370P/NEAT,e,19.4176,55.0840,356.6869,6.434128,0.0603906,0.61510618,88.5140,06/15.0/2022,2000,g 13.0,4.0
# From MPC114610
371P/LINEAR-Skiff,e,17.3816,67.2623,308.5171,4.180701,0.1153003,0.47702491,155.4533,06/15.0/2022,2000,g 16.0,4.0
# From MPEC 2020-K19
372P/McNaught,e,9.5089,325.8179,27.5168,4.506717,0.1030181,0.15268242,137.0530,06/15.0/2022,2000,g 13.5,4.0
# From MPEC 2021-F20
373P/Rinner,e,13.7671,231.9550,221.0276,3.801812,0.1329591,0.39256120,154.6615,06/15.0/2022,2000,g 14.5,4.0
# From MPC114610
374P/Larson,e,10.7668,7.9149,51.4477,4.972019,0.0889006,0.46306772,111.1892,06/15.0/2022,2000,g 14.0,4.0
# From MPEC 2021-F20
375P/Hill,e,17.3614,359.9525,119.3920,5.552023,0.0753403,0.65868255,95.8494,06/15.0/2022,2000,g 16.0,4.0
# From MPEC 2022-K19
376P/LONEOS,e,1.1793,314.2345,284.6082,5.787898,0.0707820,0.51664926,70.4175,06/15.0/2022,2000,g 12.5,4.0
# From MPEC 2021-N06
377P/Scotti,e,9.0241,226.0653,355.0584,6.706639,0.0567475,0.25173799,39.8929,06/15.0/2022,2000,g  9.5,4.0
# From MPEC 2021-Y10
378P/McNaught,e,19.0475,94.1896,193.7183,6.344449,0.0616756,0.46835237,37.3468,06/15.0/2022,2000,g 12.0,4.0
# From MPC115889
379P/Spacewatch,e,12.4486,183.8317,30.6458,3.512515,0.1497189,0.34232062,156.9294,06/15.0/2022,2000,g 15.0,4.0
# From MPEC 2022-K19
380P/PANSTARRS,e,8.2087,132.4902,86.5912,4.448616,0.1050429,0.33911183,116.9610,06/15.0/2022,2000,g 14.6,4.0
# From MPEC 2021-J28
381P/LINEAR-Spacewatch,e,28.3790,173.7577,173.2477,7.132273,0.0517443,0.68191692,51.3202,06/15.0/2022,2000,g 17.5,2.0
# From MPEC 2022-A21
382P/Larson,e,8.4309,173.7109,169.1756,6.388852,0.0610337,0.30896664,8.1122,06/15.0/2022,2000,g  8.0,4.0
# From MPC118844
383P/Christensen,e,12.3241,207.8337,133.7493,3.546387,0.1475791,0.59955543,142.0438,06/15.0/2022,2000,g 18.0,4.0
# From MPEC 2022-K19
384P/Kowalski,e,7.2846,354.2309,37.6207,2.900378,0.1995364,0.61600587,194.9560,06/15.0/2022,2000,g 19.5,4.0
# From MPEC 2021-F20
385P/Hill,e,16.8325,357.0608,44.3255,4.288398,0.1109843,0.40186367,111.3974,06/15.0/2022,2000,g 13.0,4.0
# From MPEC 2021-L04
386P/PANSTARRS,e,15.2300,134.9430,353.1512,4.054134,0.1207416,0.41624305,80.2851,06/15.0/2022,2000,g 14.5,4.0
# From MPEC 2021-J28
387P/Boattini,e,8.9252,259.2767,162.7804,4.797215,0.0938038,0.73650903,94.9698,06/15.0/2022,2000,g 15.0,4.0
# From MPEC 2021-S45
388P/Gibbs,e,23.8821,37.0436,42.3119,5.241833,0.0821257,0.61838878,86.8206,06/15.0/2022,2000,g 13.0,4.0
# From MPEC 2022-K19
389P/Siding Spring,e,160.0799,218.8679,249.3711,5.631631,0.0737484,0.70431718,66.2766,06/15.0/2022,2000,g 16.0,4.0
# From MPEC 2021-S45
390P/Gibbs,e,18.5615,152.2745,232.3692,5.807572,0.0704226,0.70737487,57.3582,06/15.0/2022,2000,g 12.0,4.0
# From MPEC 2021-F20
391P/Kowalski,e,21.2721,124.7368,187.2467,4.682252,0.0972796,0.12017883,150.3430,06/15.0/2022,2000,g  8.0,4.0
# From MPEC 2021-J28
392P/LINEAR,e,4.9318,24.8853,71.9011,6.141774,0.0647535,0.68295109,52.1357,06/15.0/2022,2000,g 14.5,4.0
# From MPEC 2021-BE3
393P/Spacewatch-Hill,e,16.7879,36.4007,328.5987,4.790302,0.0940069,0.12069270,90.2951,06/15.0/2022,2000,g 11.0,4.0
# From MPEC 2020-KB7
394P/PANSTARRS,e,8.5292,98.1251,54.4960,4.331065,0.1093483,0.36747477,101.4920,06/15.0/2022,2000,g 16.0,2.4
# From MPEC 2022-L66
395P/Catalina-NEAT,e,3.2793,223.4201,90.1367,6.597779,0.0581577,0.38389181,9.6616,06/15.0/2022,2000,g 10.0,4.0
# From MPEC 2020-KB7
396P/,e,5.4364,136.6604,8.4773,6.810083,0.0554594,0.41568609,56.6924,06/15.0/2022,2000,g 12.0,4.0
# From MPEC 2021-O56
397P/Lemmon,e,10.9297,8.1950,14.4890,3.829150,0.1315378,0.40527219,95.4130,06/15.0/2022,2000,g 12.0,4.0
# From MPEC 2021-L04
398P/Boattini,e,11.0155,127.4539,320.2049,3.127178,0.1782277,0.58280681,95.3907,06/15.0/2022,2000,g 15.5,4.0
# From MPEC 2022-ED3
399P/PANSTARRS,e,13.3198,207.1353,214.3289,3.791165,0.1335196,0.44712956,51.8493,06/15.0/2022,2000,g 14.0,4.0
# From MPEC 2022-ED3
400P/PANSTARRS,e,10.9302,176.3915,238.8113,3.561130,0.1466636,0.40941237,71.8334,06/15.0/2022,2000,g 15.5,2.8
# From MPEC 2022-K19
401P/McNaught,e,12.8026,359.8773,309.4015,5.775522,0.0710096,0.57982894,65.3990,06/15.0/2022,2000,g 12.5,4.0
# From MPEC 2022-HC2
402P/LINEAR,e,30.8492,123.0930,326.7321,7.019809,0.0529927,0.43903127,9.6675,06/15.0/2022,2000,g  8.0,4.0
# From MPEC 2021-J28
403P/Catalina,e,12.3220,163.8130,277.6406,5.427966,0.0779379,0.50368153,49.6152,06/15.0/2022,2000,g 12.0,4.0
# From MPEC 2021-WD8
404P/Bressi,e,9.7270,260.5182,167.1865,4.777940,0.0943720,0.13393056,313.4984,06/15.0/2022,2000,g 10.0,4.0
# From MPEC 2021-L04
405P/Lemmon,e,9.3656,3.3166,112.2057,3.607022,0.1438735,0.68914944,77.3636,06/15.0/2022,2000,g 17.5,4.0
# From MPEC 2021-F20
406P/Gibbs,e,1.2134,11.4791,352.4108,3.575989,0.1457504,0.54208004,92.8648,06/15.0/2022,2000,g 17.0,4.0
# From MPEC 2021-F20
407P/PANSTARRS-Fuls,e,4.8774,80.5708,93.2801,3.470964,0.1524154,0.38214896,131.9116,06/15.0/2022,2000,g 14.0,4.0
# From MPEC 2022-L66
408P/Novichonok-Gerke,e,19.3561,189.4396,226.4207,4.746208,0.0953200,0.26939630,349.3410,06/15.0/2022,2000,g 11.0,4.0
# From MPEC 2022-ED3
409P/LONEOS-Hill,e,17.1190,143.6702,15.1157,6.042172,0.0663612,0.70970624,33.3750,06/15.0/2022,2000,g 14.0,4.0
# From MPEC 2022-HC2
